CSS (TIANHE)            
1 48274U 21035A   24150.49424058  .00020577  00000+0  20114-3 0  9995
2 48274  41.4667 197.0576 0002415 114.7184 245.3908 15.65656811176175
